 
    Coasting Arc #2 (Orbit 3275)
    ---------------------------------------
 
    Vector Time (GMT): 2016/090/14:15:23.000
    Vector Time (MET): N/A
    Weight (LBS)     : 907109.6
 
              M50 Cartesian                         M50 Keplerian  
    -----------------------------------       --------------------------------
     X    =       -3886515.91                 A    =         6778184.03  meter
     Y    =        2374632.14  meter          E    =           .0005357
     Z    =        5015660.23                 I    =           51.99341
     XDOT =      -1717.723129                 Wp   =           98.98790
     YDOT =      -7185.625443  meter/sec      RA   =           89.19259  deg
     ZDOT =       2068.274169                 TA   =          330.99014
                                              MA   =          331.01990
                                              Ha   =            221.128  n.mi
                                              Hp   =            214.228
 
              M50 Cartesian                         J2K Cartesian  
    -----------------------------------       --------------------------------
     X    =      -12751036.45                 X    =        -3937144.80
     Y    =        7790787.86  feet           Y    =         2330887.89  meter
     Z    =       16455578.17                 Z    =         4996657.25
     XDOT =      -5635.574570                 XDOT =       -1647.290840
     YDOT =     -23574.886624  feet/sec       YDOT =       -7204.440175  meter/sec
     ZDOT =       6785.676406                 ZDOT =        2060.101561
 
              TDR Cartesian                         TDR Cartesian  
    -----------------------------------       --------------------------------
     X    =       -4491712.60                 X    =        -1369074.00
     Y    =       14346954.98  feet           Y    =         4372951.88  meter
     Z    =       16372561.18                 Z    =         4990356.65
     XDOT =     -18802.753575                 XDOT =       -5731.079290
     YDOT =     -13601.488441  feet/sec       YDOT =       -4145.733677  meter/sec
     ZDOT =       6751.422743                 ZDOT =        2057.833652
  
  
    The mean element set is posted at the UTC for which position is
    just north of the next ascending node relative to the above
    vector time
 
 
    TWO LINE MEAN ELEMENT SET
  
    ISS
    1 25544U 98067A   16090.64583088  .00016717  00000-0  10270-3 0  9016
    2 25544  51.6403  89.7664 0002498   5.7535 354.3646 15.54322163 32760
  
  
    Satellite: ISS
    Catalog Number: 25544
    Epoch time:      16090.64583088   =   yrday.fracday
    Element set:     901
    Inclination:       51.6403  deg
    RA of node:        89.7664  deg
    Eccentricity:     .0002498     
    Arg of perigee:     5.7535  deg
    Mean anomaly:     354.3646  deg
    Mean motion:   15.54322163  rev/day
    Decay rate:    1.67170E-04  rev/day^2
    Epoch rev:            3276
    Checksum:              320
 
 
    Coasting Arc #3 (Orbit 3290)
    ---------------------------------------
 
    Vector Time (GMT): 2016/091/14:15:23.000
    Vector Time (MET): N/A
    Weight (LBS)     : 907109.6
 
              M50 Cartesian                         M50 Keplerian  
    -----------------------------------       --------------------------------
     X    =        4147804.32                 A    =         6776863.48  meter
     Y    =        -523326.05  meter          E    =           .0015615
     Z    =       -5346910.63                 I    =           51.98694
     XDOT =        841.456611                 Wp   =           80.04159
     YDOT =       7610.563309  meter/sec      RA   =           84.21558  deg
     ZDOT =        -89.727436                 TA   =          189.09209
                                              MA   =          189.12039
                                              Ha   =            221.120  n.mi
                                              Hp   =            214.299
 
              M50 Cartesian                         J2K Cartesian  
    -----------------------------------       --------------------------------
     X    =       13608281.89                 X    =         4179321.04
     Y    =       -1716948.99  feet           Y    =         -476766.78  meter
     Z    =      -17542357.72                 Z    =        -5326685.02
     XDOT =       2760.684420                 XDOT =         756.726718
     YDOT =      24969.039728  feet/sec       YDOT =        7619.499276  meter/sec
     ZDOT =       -294.381353                 ZDOT =         -85.846287
 
              TDR Cartesian                         TDR Cartesian  
    -----------------------------------       --------------------------------
     X    =        8976742.40                 X    =         2736111.08
     Y    =      -10518144.76  feet           Y    =        -3205930.52  meter
     Z    =      -17454348.77                 Z    =        -5320085.51
     XDOT =      18104.381314                 XDOT =        5518.215424
     YDOT =      15927.153496  feet/sec       YDOT =        4854.596386  meter/sec
     ZDOT =       -278.869519                 ZDOT =         -84.999430
  
  
    The mean element set is posted at the UTC for which position is
    just north of the next ascending node relative to the above
    vector time
 
 
    TWO LINE MEAN ELEMENT SET
  
    ISS
    1 25544U 98067A   16091.61025407  .00016717  00000-0  10270-3 0  9021
    2 25544  51.6399  84.9573 0002566  11.5004 348.6207 15.54299278 32918
  
  
    Satellite: ISS
    Catalog Number: 25544
    Epoch time:      16091.61025407   =   yrday.fracday
    Element set:     902
    Inclination:       51.6399  deg
    RA of node:        84.9573  deg
    Eccentricity:     .0002566     
    Arg of perigee:    11.5004  deg
    Mean anomaly:     348.6207  deg
    Mean motion:   15.54299278  rev/day
    Decay rate:    1.67170E-04  rev/day^2
    Epoch rev:            3291
    Checksum:              313
 
 
    Coasting Arc #4 (Orbit 3292)
    ---------------------------------------
 
    Vector Time (GMT): 2016/091/16:23:58.000
    Vector Time (MET): N/A
    Weight (LBS)     : 907109.6
 
              M50 Cartesian                         M50 Keplerian  
    -----------------------------------       --------------------------------
     X    =       -2653679.47                 A    =         6781942.41  meter
     Y    =        4753358.12  meter          E    =           .0011142
     Z    =        4034711.82                 I    =           52.00522
     XDOT =      -3700.307248                 Wp   =           88.29736
     YDOT =      -5433.036433  meter/sec      RA   =           83.79802  deg
     ZDOT =       3957.937534                 TA   =          320.77722
                                              MA   =          320.85791
                                              Ha   =            221.192  n.mi
                                              Hp   =            214.142
 
              M50 Cartesian                         J2K Cartesian  
    -----------------------------------       --------------------------------
     X    =       -8706297.47                 X    =        -2726234.39
     Y    =       15595006.95  feet           Y    =         4723277.57  meter
     Z    =       13237243.50                 Z    =         4021644.26
     XDOT =     -12140.115644                 XDOT =       -3658.504650
     YDOT =     -17824.922681  feet/sec       YDOT =       -5474.181662  meter/sec
     ZDOT =      12985.359365                 ZDOT =        3940.064340
 
              TDR Cartesian                         TDR Cartesian  
    -----------------------------------       --------------------------------
     X    =       12705080.99                 X    =         3872508.69
     Y    =       12613791.03  feet           Y    =         3844683.51  meter
     Z    =       13179592.78                 Z    =         4017139.88
     XDOT =     -19508.064792                 XDOT =       -5946.058149
     YDOT =       6130.350474  feet/sec       YDOT =        1868.530824  meter/sec
     ZDOT =      12908.639520                 ZDOT =        3934.553326
  
  
    The mean element set is posted at the UTC for which position is
    just north of the next ascending node relative to the above
    vector time
 
 
    TWO LINE MEAN ELEMENT SET
  
    ISS
    1 25544U 98067A   16091.73884347  .00016717  00000-0  10270-3 0  9031
    2 25544  51.6413  84.3171 0002541  12.4840 347.6376 15.54312039 32933
  
  
    Satellite: ISS
    Catalog Number: 25544
    Epoch time:      16091.73884347   =   yrday.fracday
    Element set:     903
    Inclination:       51.6413  deg
    RA of node:        84.3171  deg
    Eccentricity:     .0002541     
    Arg of perigee:    12.4840  deg
    Mean anomaly:     347.6376  deg
    Mean motion:   15.54312039  rev/day
    Decay rate:    1.67170E-04  rev/day^2
    Epoch rev:            3293
    Checksum:              298
 
 
    Coasting Arc #5 (Orbit 3307)
    ---------------------------------------
 
    Vector Time (GMT): 2016/092/16:23:58.000
    Vector Time (MET): N/A
    Weight (LBS)     : 907109.6
 
